{
    "links": {
        "self": "http://www.neowsapp.com/rest/v1/neo/3553154?api_key=iIulBulltgU6a56xZRHN4H3l9WmuAYTsLGpBGhQ2"
    },
    "id": "3553154",
    "neo_reference_id": "3553154",
    "name": "(2010 XH11)",
    "designation": "2010 XH11",
    "nasa_jpl_url": "http://ssd.jpl.nasa.gov/sbdb.cgi?sstr=3553154",
    "absolute_magnitude_h": 23.2,
    "estimated_diameter": {
        "kilometers": {
            "estimated_diameter_min": 0.0608912622,
            "estimated_diameter_max": 0.1361570015
        },
        "meters": {
            "estimated_diameter_min": 60.8912622106,
            "estimated_diameter_max": 136.1570015386
        },
        "miles": {
            "estimated_diameter_min": 0.0378360645,
            "estimated_diameter_max": 0.0846040122
        },
        "feet": {
            "estimated_diameter_min": 199.7744887109,
            "estimated_diameter_max": 446.7093369279
        }
    },
    "is_potentially_hazardous_asteroid": false,
    "close_approach_data": [
        {
            "close_approach_date": "1993-11-20",
            "close_approach_date_full": "1993-Nov-20 14:14",
            "epoch_date_close_approach": 753804840000,
            "relative_velocity": {
                "kilometers_per_second": "10.5854998751",
                "kilometers_per_hour": "38107.79955023",
                "miles_per_hour": "23678.7046705304"
            },
            "miss_distance": {
                "astronomical": "0.3184511499",
                "lunar": "123.8774973111",
                "kilometers": "47639613.724090713",
                "miles": "29601883.3105813194"
            },
            "orbiting_body": "Earth"
        },
        {
            "close_approach_date": "2010-11-27",
            "close_approach_date_full": "2010-Nov-27 03:36",
            "epoch_date_close_approach": 1290828960000,
            "relative_velocity": {
                "kilometers_per_second": "8.850249544",
                "kilometers_per_hour": "31860.8983585362",
                "miles_per_hour": "19797.1232050582"
            },
            "miss_distance": {
                "astronomical": "0.1787324833",
                "lunar": "69.5269360037",
                "kilometers": "26737998.801490571",
                "miles": "16614222.0435330398"
            },
            "orbiting_body": "Earth"
        },
        {
            "close_approach_date": "2027-12-05",
            "close_approach_date_full": "2027-Dec-05 07:56",
            "epoch_date_close_approach": 1827993360000,
            "relative_velocity": {
                "kilometers_per_second": "8.6085015531",
                "kilometers_per_hour": "30990.6055911232",
                "miles_per_hour": "19256.3571241065"
            },
            "miss_distance": {
                "astronomical": "0.2523845572",
                "lunar": "98.1775927508",
                "kilometers": "37756192.178013164",
                "miles": "23460609.9364791032"
            },
            "orbiting_body": "Earth"
        },
        {
            "close_approach_date": "2042-11-20",
            "close_approach_date_full": "2042-Nov-20 13:35",
            "epoch_date_close_approach": 2300103300000,
            "relative_velocity": {
                "kilometers_per_second": "10.7052347462",
                "kilometers_per_hour": "38538.8450864849",
                "miles_per_hour": "23946.5396038772"
            },
            "miss_distance": {
                "astronomical": "0.3308809256",
                "lunar": "128.7126800584",
                "kilometers": "49499081.693388472",
                "miles": "30757303.1291740336"
            },
            "orbiting_body": "Earth"
        },
        {
            "close_approach_date": "2059-11-27",
            "close_approach_date_full": "2059-Nov-27 00:02",
            "epoch_date_close_approach": 2837116920000,
            "relative_velocity": {
                "kilometers_per_second": "8.9642734276",
                "kilometers_per_hour": "32271.3843392872",
                "miles_per_hour": "20052.1832301532"
            },
            "miss_distance": {
                "astronomical": "0.1847883147",
                "lunar": "71.8826544183",
                "kilometers": "27643938.280009689",
                "miles": "17177146.7323201482"
            },
            "orbiting_body": "Earth"
        }
    ],
    "orbital_data": {
        "orbit_id": "9",
        "orbit_determination_date": "2017-04-06 08:55:19",
        "first_observation_date": "2010-12-05",
        "last_observation_date": "2011-01-04",
        "data_arc_in_days": 30,
        "observations_used": 24,
        "orbit_uncertainty": "6",
        "minimum_orbit_intersection": ".175551",
        "jupiter_tisserand_invariant": "4.419",
        "epoch_osculation": "2459000.5",
        "eccentricity": ".2452286499383978",
        "semi_major_axis": "1.525817208050192",
        "inclination": "16.18065358334592",
        "ascending_node_longitude": "252.4426751054629",
        "orbital_period": "688.4179562500343",
        "perihelion_distance": "1.151643114067268",
        "perihelion_argument": "159.5319721858739",
        "aphelion_distance": "1.899991302033116",
        "perihelion_time": "2458957.899345006829",
        "mean_anomaly": "22.27750693936212",
        "mean_motion": ".5229381318886568",
        "equinox": "J2000",
        "orbit_class": {
            "orbit_class_type": "AMO",
            "orbit_class_description": "Near-Earth asteroid orbits similar to that of 1221 Amor",
            "orbit_class_range": "1.017 AU < q (perihelion) < 1.3 AU"
        }
    },
    "is_sentry_object": false
}